start=new Date('2022-10-31T00:00:00.000Z').valueOf();
sats=[{"ARG_OF_PERICENTER":"56.6137","EPHEMERIS_TYPE":"0","MEAN_ELEMENT_THEORY":"SGP4","PERIOD":"95.438","MEAN_ANOMALY":"303.5015","INCLINATION":"53.2204","CENTER_NAME":"EARTH","REF_FRAME":"TEME","ECCENTRICITY":"0.00016710","PERIAPSIS":"538.589","RCS_SIZE":"LARGE","MEAN_MOTION_DDOT":"0.0000000000000","MEAN_MOTION_DOT":"-0.00001387","RA_OF_ASC_NODE":"27.6698","FILE":"3637924","TLE_LINE2":"2 52622  53.2204  27.6698 0001671  56.6137 303.5015 15.08840274 25706","COUNTRY_CODE":"US","GP_ID":"216530404","TLE_LINE1":"1 52622U 22052AA  22303.73008468 -.00001387  00000-0 -69035-4 0  9992","NORAD_CAT_ID":"52622","APOAPSIS":"540.901","ELEMENT_SET_NO":"999","SITE":"AFETR","MEAN_MOTION":"15.08840274","TIME_SYSTEM":"UTC","LAUNCH_DATE":"2022-05-14","REV_AT_EPOCH":"2570","OBJECT_NAME":"STARLINK-4008","OBJECT_ID":"2022-052AA","DECAY_DATE":null,"BSTAR":"-0.00006903500000","SEMIMAJOR_AXIS":"6917.880","EPOCH":"2022-10-30T17:31:19.316352","OBJECT_TYPE":"PAYLOAD","CLASSIFICATION_TYPE":"U"},{"CLASSIFICATION_TYPE":"U","OBJECT_TYPE":"PAYLOAD","SEMIMAJOR_AXIS":"6917.942","EPOCH":"2022-10-30T16:37:40.775520","BSTAR":"-0.00026167000000","OBJECT_ID":"2022-052AB","DECAY_DATE":null,"REV_AT_EPOCH":"2590","OBJECT_NAME":"STARLINK-3986","SITE":"AFETR","MEAN_MOTION":"15.08819967","ELEMENT_SET_NO":"999","LAUNCH_DATE":"2022-05-14","TIME_SYSTEM":"UTC","APOAPSIS":"541.699","NORAD_CAT_ID":"52623","TLE_LINE1":"1 52623U 22052AB  22303.69283305 -.00004449  00000-0 -26167-3 0  9993","FILE":"3637924","GP_ID":"216531149","TLE_LINE2":"2 52623  53.2179  12.8444 0002736  28.5462 331.5679 15.08819967 25909","COUNTRY_CODE":"US","RA_OF_ASC_NODE":"12.8444","ECCENTRICITY":"0.00027360","MEAN_MOTION_DDOT":"0.0000000000000","MEAN_MOTION_DOT":"-0.00004449","RCS_SIZE":"LARGE","PERIAPSIS":"537.914","REF_FRAME":"TEME","INCLINATION":"53.2179","PERIOD":"95.439","MEAN_ANOMALY":"331.5679","CENTER_NAME":"EARTH","EPHEMERIS_TYPE":"0","ARG_OF_PERICENTER":"28.5462","MEAN_ELEMENT_THEORY":"SGP4"},{"APOAPSIS":"541.498","NORAD_CAT_ID":"52624","OBJECT_NAME":"STARLINK-4009","REV_AT_EPOCH":"2587","LAUNCH_DATE":"2022-05-14","TIME_SYSTEM":"UTC","MEAN_MOTION":"15.08845478","SITE":"AFETR","ELEMENT_SET_NO":"999","BSTAR":"0.00005544500000","DECAY_DATE":null,"OBJECT_ID":"2022-052AC","CLASSIFICATION_TYPE":"U","OBJECT_TYPE":"PAYLOAD","EPOCH":"2022-10-30T12:07:23.936160","SEMIMAJOR_AXIS":"6917.864","CENTER_NAME":"EARTH","PERIOD":"95.437","MEAN_ANOMALY":"335.3854","INCLINATION":"53.2170","MEAN_ELEMENT_THEORY":"SGP4","EPHEMERIS_TYPE":"0","ARG_OF_PERICENTER":"24.7260","MEAN_MOTION_DDOT":"0.0000000000000","MEAN_MOTION_DOT":"0.00000594","RCS_SIZE":"LARGE","PERIAPSIS":"537.959","ECCENTRICITY":"0.00025580","REF_FRAME":"TEME","RA_OF_ASC_NODE":"13.6876","TLE_LINE1":"1 52624U 22052AC  22303.50513815  .00000594  00000-0  55445-4 0  9993","GP_ID":"216531579","COUNTRY_CODE":"US","TLE_LINE2":"2 52624  53.2170  13.6876 0002558  24.7260 335.3854 15.08845478 25874","FILE":"3637924"},{"SEMIMAJOR_AXIS":"6917.886","EPOCH":"2022-10-30T21:18:30.968352","CLASSIFICATION_TYPE":"U","OBJECT_TYPE":"PAYLOAD","OBJECT_ID":"2022-052AD","DECAY_DATE":null,"BSTAR":"-0.00002146100000","MEAN_MOTION":"15.08838138","SITE":"AFETR","ELEMENT_SET_NO":"999","LAUNCH_DATE":"2022-05-14","TIME_SYSTEM":"UTC","REV_AT_EPOCH":"2593","OBJECT_NAME":"STARLINK-3988","NORAD_CAT_ID":"52625","APOAPSIS":"540.805","FILE":"3637924","GP_ID":"216531494","TLE_LINE2":"2 52625  53.2202  11.9534 0001523  60.0293 300.0850 15.08838138 25930","COUNTRY_CODE":"US","TLE_LINE1":"1 52625U 22052AD  22303.88785843 -.00000630  00000-0 -21461-4 0  9991","RA_OF_ASC_NODE":"11.9534","REF_FRAME":"TEME","ECCENTRICITY":"0.00015230","MEAN_MOTION_DDOT":"0.0000000000000","MEAN_MOTION_DOT":"-0.00000630","PERIAPSIS":"538.697","RCS_SIZE":"LARGE","ARG_OF_PERICENTER":"60.0293","EPHEMERIS_TYPE":"0","MEAN_ELEMENT_THEORY":"SGP4","MEAN_ANOMALY":"300.0850","PERIOD":"95.438","INCLINATION":"53.2202","CENTER_NAME":"EARTH"},{"FILE":"3637924","GP_ID":"216530904","TLE_LINE2":"2 52626  53.2183  13.4039 0001958  44.1827 315.9321 15.08846543 25885","COUNTRY_CODE":"US","TLE_LINE1":"1 52626U 22052AE  22303.56769466  .00000455  00000-0  46690-4 0  9994","RA_OF_ASC_NODE":"13.4039","REF_FRAME":"TEME","ECCENTRICITY":"0.00019580","MEAN_MOTION_DDOT":"0.0000000000000","MEAN_MOTION_DOT":"0.00000455","PERIAPSIS":"538.371","RCS_SIZE":"LARGE","EPHEMERIS_TYPE":"0","ARG_OF_PERICENTER":"44.1827","MEAN_ELEMENT_THEORY":"SGP4","MEAN_ANOMALY":"315.9321","PERIOD":"95.437","INCLINATION":"53.2183","CENTER_NAME":"EARTH","SEMIMAJOR_AXIS":"6917.860","EPOCH":"2022-10-30T13:37:28.818624","CLASSIFICATION_TYPE":"U","OBJECT_TYPE":"PAYLOAD","OBJECT_ID":"2022-052AE","DECAY_DATE":null,"BSTAR":"0.00004669000000","SITE":"AFETR","MEAN_MOTION":"15.08846543","ELEMENT_SET_NO":"999","LAUNCH_DATE":"2022-05-14","TIME_SYSTEM":"UTC","REV_AT_EPOCH":"2588","OBJECT_NAME":"STARLINK-3990","NORAD_CAT_ID":"52626","APOAPSIS":"541.080"},{"REV_AT_EPOCH":"2590","OBJECT_NAME":"STARLINK-3992","MEAN_MOTION":"15.08853824","SITE":"AFETR","ELEMENT_SET_NO":"999","LAUNCH_DATE":"2022-05-14","TIME_SYSTEM":"UTC","APOAPSIS":"541.259","NORAD_CAT_ID":"52627","CLASSIFICATION_TYPE":"U","OBJECT_TYPE":"PAYLOAD","SEMIMAJOR_AXIS":"6917.838","EPOCH":"2022-10-30T14:41:03.356160","BSTAR":"-0.00001162200000","OBJECT_ID":"2022-052AF","DECAY_DATE":null,"ECCENTRICITY":"0.00022490","MEAN_MOTION_DDOT":"0.0000000000000","MEAN_MOTION_DOT":"-0.00000473","PERIAPSIS":"538.147","RCS_SIZE":"LARGE","REF_FRAME":"TEME","INCLINATION":"53.2198","PERIOD":"95.437","MEAN_ANOMALY":"331.2576","CENTER_NAME":"EARTH","ARG_OF_PERICENTER":"28.8540","EPHEMERIS_TYPE":"0","MEAN_ELEMENT_THEORY":"SGP4","TLE_LINE1":"1 52627U 22052AF  22303.61184440 -.00000473  00000-0 -11622-4 0  9993","FILE":"3637924","GP_ID":"216531567","TLE_LINE2":"2 52627  53.2198  13.2065 0002249  28.8540 331.2576 15.08853824 25900","COUNTRY_CODE":"US","RA_OF_ASC_NODE":"13.2065"},{"FILE":"3637924","TLE_LINE2":"2 52628  53.2186  27.9886 0001974  41.9287 318.1856 15.08843933 25690","COUNTRY_CODE":"US","GP_ID":"216531162","TLE_LINE1":"1 52628U 22052AG  22303.66016326 -.00003706  00000-0 -21484-3 0  9994","RA_OF_ASC_NODE":"27.9886","REF_FRAME":"TEME","ECCENTRICITY":"0.00019740","PERIAPSIS":"538.368","RCS_SIZE":"LARGE","MEAN_MOTION_DDOT":"0.0000000000000","MEAN_MOTION_DOT":"-0.00003706","ARG_OF_PERICENTER":"41.9287","EPHEMERIS_TYPE":"0","MEAN_ELEMENT_THEORY":"SGP4","PERIOD":"95.437","MEAN_ANOMALY":"318.1856","INCLINATION":"53.2186","CENTER_NAME":"EARTH","SEMIMAJOR_AXIS":"6917.868","EPOCH":"2022-10-30T15:50:38.105664","OBJECT_TYPE":"PAYLOAD","CLASSIFICATION_TYPE":"U","OBJECT_ID":"2022-052AG","DECAY_DATE":null,"BSTAR":"-0.00021484000000","SITE":"AFETR","ELEMENT_SET_NO":"999","MEAN_MOTION":"15.08843933","TIME_SYSTEM":"UTC","LAUNCH_DATE":"2022-05-14","REV_AT_EPOCH":"2569","OBJECT_NAME":"STARLINK-4001","NORAD_CAT_ID":"52628","APOAPSIS":"541.099"},{"REF_FRAME":"TEME","MEAN_MOTION_DDOT":"0.0000000000000","MEAN_MOTION_DOT":"-0.00000953","PERIAPSIS":"538.357","RCS_SIZE":"LARGE","ECCENTRICITY":"0.00019870","MEAN_ELEMENT_THEORY":"SGP4","EPHEMERIS_TYPE":"0","ARG_OF_PERICENTER":"34.9428","CENTER_NAME":"EARTH","PERIOD":"95.437","MEAN_ANOMALY":"325.1694","INCLINATION":"53.2205","GP_ID":"216531912","COUNTRY_CODE":"US","TLE_LINE2":"2 52629  53.2205  13.2175 0001987  34.9428 325.1694 15.08844564 25896","FILE":"3637924","TLE_LINE1":"1 52629U 22052AH  22303.60818351 -.00000953  00000-0 -41780-4 0  9990","RA_OF_ASC_NODE":"13.2175","LAUNCH_DATE":"2022-05-14","TIME_SYSTEM":"UTC","MEAN_MOTION":"15.08844564","SITE":"AFETR","ELEMENT_SET_NO":"999","OBJECT_NAME":"STARLINK-4022","REV_AT_EPOCH":"2589","NORAD_CAT_ID":"52629","APOAPSIS":"541.106","EPOCH":"2022-10-30T14:35:47.055264","SEMIMAJOR_AXIS":"6917.866","CLASSIFICATION_TYPE":"U","OBJECT_TYPE":"PAYLOAD","DECAY_DATE":null,"OBJECT_ID":"2022-052AH","BSTAR":"-0.00004178000000"},{"RA_OF_ASC_NODE":"11.9830","TLE_LINE2":"2 52630  53.2189  11.9830 0002769  23.6867 336.4252 15.08838611 25939","COUNTRY_CODE":"US","GP_ID":"216530405","FILE":"3637924","TLE_LINE1":"1 52630U 22052AJ  22303.88418339 -.00001158  00000-0 -54659-4 0  9991","MEAN_ELEMENT_THEORY":"SGP4","EPHEMERIS_TYPE":"0","ARG_OF_PERICENTER":"23.6867","CENTER_NAME":"EARTH","PERIOD":"95.438","MEAN_ANOMALY":"336.4252","INCLINATION":"53.2189","REF_FRAME":"TEME","PERIAPSIS":"537.834","RCS_SIZE":"LARGE","MEAN_MOTION_DOT":"-0.00001158","MEAN_MOTION_DDOT":"0.0000000000000","ECCENTRICITY":"0.00027690","DECAY_DATE":null,"OBJECT_ID":"2022-052AJ","BSTAR":"-0.00005465900000","EPOCH":"2022-10-30T21:13:13.444896","SEMIMAJOR_AXIS":"6917.885","OBJECT_TYPE":"PAYLOAD","CLASSIFICATION_TYPE":"U","NORAD_CAT_ID":"52630","APOAPSIS":"541.665","TIME_SYSTEM":"UTC","LAUNCH_DATE":"2022-05-14","MEAN_MOTION":"15.08838611","SITE":"AFETR","ELEMENT_SET_NO":"999","OBJECT_NAME":"STARLINK-3989","REV_AT_EPOCH":"2593"},{"CENTER_NAME":"EARTH","MEAN_ANOMALY":"322.3861","PERIOD":"95.438","INCLINATION":"53.2194","MEAN_ELEMENT_THEORY":"SGP4","EPHEMERIS_TYPE":"0","ARG_OF_PERICENTER":"37.7294","MEAN_MOTION_DDOT":"0.0000000000000","MEAN_MOTION_DOT":"-0.00003507","RCS_SIZE":"LARGE","PERIAPSIS":"538.164","ECCENTRICITY":"0.00023270","REF_FRAME":"TEME","RA_OF_ASC_NODE":"12.9352","TLE_LINE1":"1 52631U 22052AK  22303.67073930 -.00003507  00000-0 -20237-3 0  9997","GP_ID":"216531150","TLE_LINE2":"2 52631  53.2194  12.9352 0002327  37.7294 322.3861 15.08830737 25915","COUNTRY_CODE":"US","FILE":"3637924","APOAPSIS":"541.383","NORAD_CAT_ID":"52631","OBJECT_NAME":"STARLINK-3794","REV_AT_EPOCH":"2591","LAUNCH_DATE":"2022-05-14","TIME_SYSTEM":"UTC","SITE":"AFETR","ELEMENT_SET_NO":"999","MEAN_MOTION":"15.08830737","BSTAR":"-0.00020237000000","DECAY_DATE":null,"OBJECT_ID":"2022-052AK","CLASSIFICATION_TYPE":"U","OBJECT_TYPE":"PAYLOAD","EPOCH":"2022-10-30T16:05:51.875520","SEMIMAJOR_AXIS":"6917.909"}];
